0 STARLINK-31044
1 58589U 23200A   26160.98731586  .00002858  00000-0  11337-3 0  9995
2 58589  43.0016   7.8386 0001618 258.6698 101.3972 15.27572007137722
0 STARLINK-31062
1 58590U 23200B   26161.28677263 -.00003642  00000-0 -12296-3 0  9991
2 58590  43.0126   9.2165 0000537 100.2652 259.8260 15.27565428137737
0 STARLINK-31096
1 58592U 23200D   26161.25970779  .00058017  00000-0  17290-2 0  9990
2 58592  42.9969   5.5757 0013459 267.1454  92.7859 15.33777397137777
0 STARLINK-31094
1 58593U 23200E   26161.28725836  .00000051  00000-0  11381-4 0  9998
2 58593  43.0047   5.8153 0000865 275.7585  84.3168 15.27577041137774
0 STARLINK-31075
1 58594U 23200F   26161.26669747  .00000198  00000-0  16726-4 0  9995
2 58594  43.0026   5.6520 0001062 267.9145  92.1585 15.27578331137776
0 STARLINK-30857
1 58595U 23200G   26160.70647396  .00002076  00000-0  84930-4 0  9999
2 58595  43.0056   9.1937 0001940 254.3782 105.6856 15.27588741137680
0 STARLINK-31059
1 58596U 23200H   26161.42464942  .00001942  00000-0  80057-4 0  9991
2 58596  43.0002 208.4122 0001334 277.1413  82.9286 15.27581230139630
0 STARLINK-31087
1 58597U 23200J   26161.27055885 -.00002479  00000-0 -80652-4 0  9996
2 58597  43.0048   5.6871 0000860 292.7601  67.3160 15.27561173137667
0 STARLINK-31079
1 58598U 23200K   26161.13319684  .00076705  00000-0  69026-3 0  9994
2 58598  42.9759 318.8720 0034717 307.5733  52.1981 15.66473150138301
0 STARLINK-31052
1 58600U 23200M   26160.88208756  .00000289  00000-0  20030-4 0  9993
2 58600  42.9965   7.9243 0000915 258.1846 101.8903 15.27577947137715
0 STARLINK-31074
1 58601U 23200N   26160.88594060  .00001499  00000-0  63974-4 0  9998
2 58601  43.0065   7.9584 0001042 262.1490  97.9243 15.27584844137715
0 STARLINK-31071
1 58602U 23200P   26160.84053022  .00013507  00000-0  50034-3 0  9998
2 58602  43.0047 208.2597 0000252 217.0538 143.0296 15.27522347139588
0 STARLINK-31080
1 58603U 23200Q   26161.28212102 -.00000396  00000-0 -48820-5 0  9990
2 58603  43.0059   5.7626 0000963 275.4645  84.6097 15.27574498137582
0 STARLINK-31088
1 58604U 23200R   26161.28469475  .00000095  00000-0  12984-4 0  9993
2 58604  43.0045   5.7738 0000397 296.5527  63.5284 15.27569948137775
0 STARLINK-31038
1 58605U 23200S   26161.28162457  .00062811  00000-0  18318-2 0  9993
2 58605  43.0066   4.0468 0008468 270.0406  89.9478 15.34481570137792
0 STARLINK-31082
1 58606U 23200T   26161.28856240 -.00000170  00000-0  33696-5 0  9994
2 58606  42.9831   5.8180 0002451  97.7206 262.3924 15.27573363137774
0 STARLINK-31069
1 58607U 23200U   26160.31545667  .00002258  00000-0  91565-4 0  9992
2 58607  43.0040  11.4124 0000835 265.4344  94.6412 15.27575350137621
0 STARLINK-31067
1 58608U 23200V   26160.84239031 -.00002074  00000-0 -65847-4 0  9998
2 58608  43.0033   8.4884 0001321 303.8127  56.2599 15.27591955137708
0 STARLINK-31085
1 58609U 23200W   26160.84625591  .00003258  00000-0  12789-3 0  9998
2 58609  43.0037   8.5116 0001752 267.4722  92.5929 15.27575474137704
0 STARLINK-31089
1 58610U 23200X   26160.86037822  .00000059  00000-0  11657-4 0  9996
2 58610  43.0013   8.5665 0001253 261.8270  98.2439 15.27582369137701
0 STARLINK-31061
1 58611U 23200Y   26160.97959812  .00000299  00000-0  20411-4 0  9995
2 58611  43.0040   7.7898 0001705 268.8373  91.2283 15.27579778137726
0 COSMOS 2573
1 58614U 23201A   26161.62102299  .00003323  00000-0  13688-3 0  9999
2 58614  97.6267 110.9431 0002927  74.8685 285.2876 15.24834897137482
0 STARLINK-31054
1 58619U 23203B   26161.56410395  .00004964  00000-0  18987-3 0  9997
2 58619  43.0037 262.7341 0000210 124.8688 235.2184 15.27563174137763
0 STARLINK-31134
1 58621U 23203D   26161.58598624 -.00005753  00000-0 -19993-3 0  9991
2 58621  43.0025 262.8955 0002024 273.3783  86.6837 15.27537343137768
0 STARLINK-31133
1 58622U 23203E   26161.56025713  .00000055  00000-0  11554-4 0  9998
2 58622  43.0107 262.7125 0002169 277.3728  82.6877 15.27576943137760
0 STARLINK-31068
1 58623U 23203F   26160.57559788  .00001108  00000-0  49769-4 0  9992
2 58623  43.0023 268.2180 0001081 248.8093 111.2644 15.27587052137618
0 STARLINK-31129
1 58624U 23203G   26161.55381990  .00017032  00000-0  62535-3 0  9998
2 58624  43.0025 262.6587 0001935 252.1934 107.8707 15.27667158137763
0 STARLINK-30774
1 58625U 23203H   26161.54997035 -.00000352  00000-0 -32442-5 0  9996
2 58625  43.0018 262.6281 0002105 278.1647  81.8966 15.27584263137769
0 STARLINK-31086
1 58626U 23203J   26161.58965980 -.00000289  00000-0 -97419-6 0  9990
2 58626  43.0128 262.0704 0000751 287.1168  72.9602 15.27579985137773
0 STARLINK-31065
1 58627U 23203K   26161.01274536 -.00000245  00000-0  59820-6 0  9994
2 58627  42.9995 265.4820 0001020 243.7328 116.3418 15.27575706137681
