OBJECT_NAME,OBJECT_ID,EPOCH,MEAN_MOTION,ECCENTRICITY,INCLINATION,RA_OF_ASC_NODE,ARG_OF_PERICENTER,MEAN_ANOMALY,EPHEMERIS_TYPE,CLASSIFICATION_TYPE,NORAD_CAT_ID,ELEMENT_SET_NO,REV_AT_EPOCH,BSTAR,MEAN_MOTION_DOT,MEAN_MOTION_DDOT
STARLINK-31044,2023-200A,2026-06-09T23:41:44.090304,15.27572007,.00016175,43.0016,7.8386,258.6698,101.3972,0,U,58589,999,13772,.11336722E-3,.2858E-4,0
STARLINK-31062,2023-200B,2026-06-10T06:52:57.155232,15.27565428,.0000537,43.0126,9.2165,100.2652,259.8260,0,U,58590,999,13773,-.12296E-3,-.3642E-4,0
STARLINK-31096,2023-200D,2026-06-10T06:13:58.753056,15.33777397,.0013459,42.9969,5.5757,267.1454,92.7859,0,U,58592,999,13777,.1729E-2,.58017E-3,0
STARLINK-31094,2023-200E,2026-06-10T06:53:39.122304,15.27577041,.0000865,43.0047,5.8153,275.7585,84.3168,0,U,58593,999,13777,.11381E-4,.51E-6,0
STARLINK-31075,2023-200F,2026-06-10T06:24:02.661408,15.27578331,.0001062,43.0026,5.6520,267.9145,92.1585,0,U,58594,999,13777,.16726E-4,.198E-5,0
STARLINK-30857,2023-200G,2026-06-09T16:57:19.350144,15.27588741,.00019405,43.0056,9.1937,254.3782,105.6856,0,U,58595,999,13768,.84929668E-4,.2076E-4,0
STARLINK-31059,2023-200H,2026-06-10T10:11:29.709888,15.27581230,.00013343,43.0002,208.4122,277.1413,82.9286,0,U,58596,999,13963,.80057304E-4,.1942E-4,0
STARLINK-31087,2023-200J,2026-06-10T06:29:36.284640,15.27561173,.000086,43.0048,5.6871,292.7601,67.3160,0,U,58597,999,13766,-.80652E-4,-.2479E-4,0
STARLINK-31079,2023-200K,2026-06-10T03:11:48.206976,15.66473150,.00347169,42.9759,318.8720,307.5733,52.1981,0,U,58598,999,13830,.69026407E-3,.76705E-3,0
STARLINK-31052,2023-200M,2026-06-09T21:10:12.365184,15.27577947,.00009152,42.9965,7.9243,258.1846,101.8903,0,U,58600,999,13771,.20029994E-4,.289E-5,0
STARLINK-31074,2023-200N,2026-06-09T21:15:45.267840,15.27584844,.00010418,43.0065,7.9584,262.1490,97.9243,0,U,58601,999,13771,.63974466E-4,.1499E-4,0
STARLINK-31071,2023-200P,2026-06-09T20:10:21.811008,15.27522347,.00002519,43.0047,208.2597,217.0538,143.0296,0,U,58602,999,13958,.50033891E-3,.13507E-3,0
STARLINK-31080,2023-200Q,2026-06-10T06:46:15.256128,15.27574498,.0000963,43.0059,5.7626,275.4645,84.6097,0,U,58603,999,13758,-.4882E-5,-.396E-5,0
STARLINK-31088,2023-200R,2026-06-10T06:49:57.626400,15.27569948,.0000397,43.0045,5.7738,296.5527,63.5284,0,U,58604,999,13777,.12984E-4,.95E-6,0
STARLINK-31038,2023-200S,2026-06-10T06:45:32.362848,15.34481570,.0008468,43.0066,4.0468,270.0406,89.9478,0,U,58605,999,13779,.18318E-2,.62811E-3,0
STARLINK-31082,2023-200T,2026-06-10T06:55:31.791360,15.27573363,.0002451,42.9831,5.8180,97.7206,262.3924,0,U,58606,999,13777,.33696E-5,-.17E-5,0
STARLINK-31069,2023-200U,2026-06-09T07:34:15.456288,15.27575350,.00008352,43.0040,11.4124,265.4344,94.6412,0,U,58607,999,13762,.91565349E-4,.2258E-4,0
STARLINK-31067,2023-200V,2026-06-09T20:13:02.522784,15.27591955,.00013213,43.0033,8.4884,303.8127,56.2599,0,U,58608,999,13770,-.65846997E-4,-.2074E-4,0
STARLINK-31085,2023-200W,2026-06-09T20:18:36.510624,15.27575474,.0001752,43.0037,8.5116,267.4722,92.5929,0,U,58609,999,13770,.12788793E-3,.3258E-4,0
STARLINK-31089,2023-200X,2026-06-09T20:38:56.678208,15.27582369,.00012528,43.0013,8.5665,261.8270,98.2439,0,U,58610,999,13770,.11657148E-4,.59E-6,0
STARLINK-31061,2023-200Y,2026-06-09T23:30:37.277568,15.27579778,.00017051,43.0040,7.7898,268.8373,91.2283,0,U,58611,999,13772,.20410589E-4,.299E-5,0
COSMOS 2573,2023-201A,2026-06-10T14:54:16.386336,15.24834897,.00029268,97.6267,110.9431,74.8685,285.2876,0,U,58614,999,13748,.13688389E-3,.3323E-4,0
STARLINK-31054,2023-203B,2026-06-10T13:32:18.581280,15.27563174,.00002098,43.0037,262.7341,124.8688,235.2184,0,U,58619,999,13776,.18986779E-3,.4964E-4,0
STARLINK-31134,2023-203D,2026-06-10T14:03:49.211136,15.27537343,.0002024,43.0025,262.8955,273.3783,86.6837,0,U,58621,999,13776,-.19993144E-3,-.5753E-4,0
STARLINK-31133,2023-203E,2026-06-10T13:26:46.216032,15.27576943,.00021691,43.0107,262.7125,277.3728,82.6877,0,U,58622,999,13776,.11554024E-4,.55E-6,0
STARLINK-31068,2023-203F,2026-06-09T13:48:51.656832,15.27587052,.0001081,43.0023,268.2180,248.8093,111.2644,0,U,58623,999,13761,.49769141E-4,.1108E-4,0
STARLINK-31129,2023-203G,2026-06-10T13:17:30.039360,15.27667158,.00019353,43.0025,262.6587,252.1934,107.8707,0,U,58624,999,13776,.62534595E-3,.17032E-3,0
STARLINK-30774,2023-203H,2026-06-10T13:11:57.438240,15.27584263,.00021051,43.0018,262.6281,278.1647,81.8966,0,U,58625,999,13776,-.3244161E-5,-.352E-5,0
STARLINK-31086,2023-203J,2026-06-10T14:09:06.606720,15.27579985,.00007508,43.0128,262.0704,287.1168,72.9602,0,U,58626,999,13777,-.974193E-6,-.289E-5,0
STARLINK-31065,2023-203K,2026-06-10T00:18:21.199104,15.27575706,.00010196,42.9995,265.4820,243.7328,116.3418,0,U,58627,999,13768,.598198E-6,-.245E-5,0
